IRIDIUM 57 [-]          
1 25273U 98019B   24029.42111193  .00000568  00000+0  19243-3 0  9995
2 25273  86.3990 356.6437 0002185  87.4335 272.7111 14.35062517352371
IRIDIUM 63 [-]          
1 25286U 98021B   24029.28748710  .00000633  00000+0  21291-3 0  9996
2 25286  86.3986 293.6350 0002268  88.4217 271.7239 14.35586806351388
IRIDIUM 69 [-]          
1 25319U 98026A   24029.76460205  .00000875  00000+0  27297-3 0  9991
2 25319  86.4004 308.2366 0000781 175.0481 185.0725 14.39779088350455
IRIDIUM 71 [-]          
1 25320U 98026B   24029.72619481  .00000684  00000+0  21052-3 0  9992
2 25320  86.3990 303.0481 0001580  20.6663 339.4600 14.40099790350966
IRIDIUM 73 [-]          
1 25344U 98032C   24029.59636070  .00000734  00000+0  18346-3 0  9991
2 25344  86.4393 260.7280 0001502  96.1337 264.0039 14.50267261357390
IRIDIUM 82 [-]          
1 25467U 98051A   24029.40329758  .00022343  00000+0  12314-2 0  9998
2 25467  86.3959 351.7708 0139547  13.8009 346.6977 15.05819346347421
IRIDIUM 2 [-]           
1 25527U 98066A   24029.78134934  .00056666  00000+0  91561-3 0  9999
2 25527  85.5135  32.3292 0007353 115.7309 244.4710 15.52617512386098
